start=new Date('2021-09-21T00:00:00.000Z').valueOf();
sats=[{"TLE_LINE1":"1 46036U 20055K   21263.66023291 -.00000629  00000-0 -23340-4 0  9999","APOAPSIS":"547.994","MEAN_ELEMENT_THEORY":"SGP4","PERIOD":"95.592","ARG_OF_PERICENTER":"65.7823","SITE":"AFETR","ELEMENT_SET_NO":"999","MEAN_MOTION":"15.06394737","CENTER_NAME":"EARTH","MEAN_ANOMALY":"294.3281","OBJECT_TYPE":"PAYLOAD","NORAD_CAT_ID":"46036","COUNTRY_CODE":"US","SEMIMAJOR_AXIS":"6925.365","PERIAPSIS":"546.465","RCS_SIZE":"LARGE","TLE_LINE2":"2 46036  53.0525 248.6023 0001104  65.7823 294.3281 15.06394737 62544","REV_AT_EPOCH":"6254","LAUNCH_DATE":"2020-08-07","EPOCH":"2021-09-20T15:50:44.123424","EPHEMERIS_TYPE":"0","MEAN_MOTION_DOT":"-0.00000629","MEAN_MOTION_DDOT":"0.0000000000000","INCLINATION":"53.0525","OBJECT_ID":"2020-055K","FILE":"3121261","ECCENTRICITY":"0.00011040","BSTAR":"-0.00002334000000","OBJECT_NAME":"STARLINK-1560","GP_ID":"185099774","REF_FRAME":"TEME","RA_OF_ASC_NODE":"248.6023","DECAY_DATE":null,"CLASSIFICATION_TYPE":"U","TIME_SYSTEM":"UTC"},{"DECAY_DATE":null,"RA_OF_ASC_NODE":"248.6203","TIME_SYSTEM":"UTC","CLASSIFICATION_TYPE":"U","REF_FRAME":"TEME","GP_ID":"185121151","OBJECT_NAME":"STARLINK-1565","ECCENTRICITY":"0.00009770","BSTAR":"-0.00004305900000","FILE":"3121356","INCLINATION":"53.0543","OBJECT_ID":"2020-055L","MEAN_MOTION_DDOT":"0.0000000000000","MEAN_MOTION_DOT":"-0.00000922","LAUNCH_DATE":"2020-08-07","EPHEMERIS_TYPE":"0","EPOCH":"2021-09-20T15:45:25.303104","REV_AT_EPOCH":"6305","TLE_LINE2":"2 46037  53.0543 248.6203 0000977  77.6127 282.4971 15.06394998 63051","RCS_SIZE":"LARGE","PERIAPSIS":"546.552","SEMIMAJOR_AXIS":"6925.364","COUNTRY_CODE":"US","OBJECT_TYPE":"PAYLOAD","MEAN_ANOMALY":"282.4971","NORAD_CAT_ID":"46037","CENTER_NAME":"EARTH","MEAN_MOTION":"15.06394998","SITE":"AFETR","ELEMENT_SET_NO":"999","APOAPSIS":"547.905","MEAN_ELEMENT_THEORY":"SGP4","TLE_LINE1":"1 46037U 20055L   21263.65654286 -.00000922  00000-0 -43059-4 0  9998","ARG_OF_PERICENTER":"77.6127","PERIOD":"95.592"},{"MEAN_MOTION_DDOT":"0.0000000000000","MEAN_MOTION_DOT":"0.00000617","EPHEMERIS_TYPE":"0","EPOCH":"2021-09-20T16:06:39.105216","LAUNCH_DATE":"2020-08-07","BSTAR":"0.00006029600000","ECCENTRICITY":"0.00009870","FILE":"3121356","INCLINATION":"53.0535","OBJECT_ID":"2020-055M","GP_ID":"185122403","OBJECT_NAME":"STARLINK-1567","TIME_SYSTEM":"UTC","CLASSIFICATION_TYPE":"U","DECAY_DATE":null,"RA_OF_ASC_NODE":"248.5563","REF_FRAME":"TEME","ELEMENT_SET_NO":"999","SITE":"AFETR","PERIOD":"95.593","ARG_OF_PERICENTER":"67.2117","APOAPSIS":"547.931","MEAN_ELEMENT_THEORY":"SGP4","TLE_LINE1":"1 46038U 20055M   21263.67128594  .00000617  00000-0  60296-4 0  9990","NORAD_CAT_ID":"46038","OBJECT_TYPE":"PAYLOAD","MEAN_ANOMALY":"292.8976","CENTER_NAME":"EARTH","MEAN_MOTION":"15.06388834","PERIAPSIS":"546.564","SEMIMAJOR_AXIS":"6925.383","COUNTRY_CODE":"US","REV_AT_EPOCH":"6305","RCS_SIZE":"LARGE","TLE_LINE2":"2 46038  53.0535 248.5563 0000987  67.2117 292.8976 15.06388834 63058"},{"ECCENTRICITY":"0.00009570","BSTAR":"-0.00005209200000","INCLINATION":"53.0540","OBJECT_ID":"2020-055N","FILE":"3121356","MEAN_MOTION_DOT":"-0.00001057","MEAN_MOTION_DDOT":"0.0000000000000","LAUNCH_DATE":"2020-08-07","EPOCH":"2021-09-20T16:17:16.478016","EPHEMERIS_TYPE":"0","RA_OF_ASC_NODE":"248.5240","DECAY_DATE":null,"CLASSIFICATION_TYPE":"U","TIME_SYSTEM":"UTC","REF_FRAME":"TEME","GP_ID":"185122153","OBJECT_NAME":"STARLINK-1569","MEAN_ANOMALY":"286.0087","OBJECT_TYPE":"PAYLOAD","NORAD_CAT_ID":"46039","CENTER_NAME":"EARTH","MEAN_MOTION":"15.06393242","SITE":"AFETR","ELEMENT_SET_NO":"999","TLE_LINE1":"1 46039U 20055N   21263.67866294 -.00001057  00000-0 -52092-4 0  9993","APOAPSIS":"547.897","MEAN_ELEMENT_THEORY":"SGP4","PERIOD":"95.593","ARG_OF_PERICENTER":"74.1008","REV_AT_EPOCH":"6305","TLE_LINE2":"2 46039  53.0540 248.5240 0000957  74.1008 286.0087 15.06393242 63057","RCS_SIZE":"LARGE","PERIAPSIS":"546.572","SEMIMAJOR_AXIS":"6925.369","COUNTRY_CODE":"US"},{"OBJECT_NAME":"STARLINK-1576","GP_ID":"185095717","REF_FRAME":"TEME","DECAY_DATE":null,"RA_OF_ASC_NODE":"249.5809","TIME_SYSTEM":"UTC","CLASSIFICATION_TYPE":"U","LAUNCH_DATE":"2020-08-07","EPHEMERIS_TYPE":"0","EPOCH":"2021-09-20T10:37:33.793536","MEAN_MOTION_DDOT":"0.0000000000000","MEAN_MOTION_DOT":"0.00000935","FILE":"3121163","INCLINATION":"53.0543","OBJECT_ID":"2020-055P","ECCENTRICITY":"0.00008600","BSTAR":"0.00008164000000","COUNTRY_CODE":"US","SEMIMAJOR_AXIS":"6925.336","PERIAPSIS":"546.605","TLE_LINE2":"2 46040  53.0543 249.5809 0000860  65.0487 295.0591 15.06404114 62989","RCS_SIZE":"LARGE","REV_AT_EPOCH":"6298","APOAPSIS":"547.797","MEAN_ELEMENT_THEORY":"SGP4","TLE_LINE1":"1 46040U 20055P   21263.44275224  .00000935  00000-0  81640-4 0  9990","PERIOD":"95.592","ARG_OF_PERICENTER":"65.0487","ELEMENT_SET_NO":"999","SITE":"AFETR","MEAN_MOTION":"15.06404114","CENTER_NAME":"EARTH","OBJECT_TYPE":"PAYLOAD","MEAN_ANOMALY":"295.0591","NORAD_CAT_ID":"46040"},{"CENTER_NAME":"EARTH","MEAN_MOTION":"15.06397008","OBJECT_TYPE":"PAYLOAD","MEAN_ANOMALY":"298.3482","NORAD_CAT_ID":"46041","APOAPSIS":"548.028","MEAN_ELEMENT_THEORY":"SGP4","TLE_LINE1":"1 46041U 20055Q   21263.37914944 -.00000148  00000-0  89559-5 0  9997","PERIOD":"95.592","ARG_OF_PERICENTER":"61.7624","ELEMENT_SET_NO":"999","SITE":"AFETR","TLE_LINE2":"2 46041  53.0547 249.8662 0001163  61.7624 298.3482 15.06397008 62985","RCS_SIZE":"LARGE","REV_AT_EPOCH":"6298","COUNTRY_CODE":"US","SEMIMAJOR_AXIS":"6925.358","PERIAPSIS":"546.417","FILE":"3121163","INCLINATION":"53.0547","OBJECT_ID":"2020-055Q","ECCENTRICITY":"0.00011630","BSTAR":"0.00000895590000","LAUNCH_DATE":"2020-08-07","EPHEMERIS_TYPE":"0","EPOCH":"2021-09-20T09:05:58.511616","MEAN_MOTION_DDOT":"0.0000000000000","MEAN_MOTION_DOT":"-0.00000148","REF_FRAME":"TEME","DECAY_DATE":null,"RA_OF_ASC_NODE":"249.8662","TIME_SYSTEM":"UTC","CLASSIFICATION_TYPE":"U","OBJECT_NAME":"STARLINK-1580","GP_ID":"185095968"},{"COUNTRY_CODE":"US","SEMIMAJOR_AXIS":"6925.382","PERIAPSIS":"546.333","RCS_SIZE":"LARGE","TLE_LINE2":"2 46042  53.0544 248.4525 0001320  64.3522 295.7604 15.06388986 63025","REV_AT_EPOCH":"6302","PERIOD":"95.593","ARG_OF_PERICENTER":"64.3522","TLE_LINE1":"1 46042U 20055R   21263.69340720  .00000619  00000-0  60460-4 0  9999","MEAN_ELEMENT_THEORY":"SGP4","APOAPSIS":"548.161","ELEMENT_SET_NO":"999","SITE":"AFETR","CENTER_NAME":"EARTH","MEAN_MOTION":"15.06388986","NORAD_CAT_ID":"46042","MEAN_ANOMALY":"295.7604","OBJECT_TYPE":"PAYLOAD","OBJECT_NAME":"STARLINK-1581","GP_ID":"185121903","REF_FRAME":"TEME","CLASSIFICATION_TYPE":"U","TIME_SYSTEM":"UTC","RA_OF_ASC_NODE":"248.4525","DECAY_DATE":null,"EPOCH":"2021-09-20T16:38:30.382080","EPHEMERIS_TYPE":"0","LAUNCH_DATE":"2020-08-07","MEAN_MOTION_DOT":"0.00000619","MEAN_MOTION_DDOT":"0.0000000000000","INCLINATION":"53.0544","OBJECT_ID":"2020-055R","FILE":"3121356","BSTAR":"0.00006046000000","ECCENTRICITY":"0.00013200"},{"MEAN_MOTION":"15.06389821","CENTER_NAME":"EARTH","NORAD_CAT_ID":"46043","OBJECT_TYPE":"PAYLOAD","MEAN_ANOMALY":"297.0905","PERIOD":"95.593","ARG_OF_PERICENTER":"63.0194","APOAPSIS":"547.992","MEAN_ELEMENT_THEORY":"SGP4","TLE_LINE1":"1 46043U 20055S   21263.68603540  .00000758  00000-0  69799-4 0  9999","SITE":"AFETR","ELEMENT_SET_NO":"999","RCS_SIZE":"LARGE","TLE_LINE2":"2 46043  53.0543 248.4851 0001079  63.0194 297.0905 15.06389821 63050","REV_AT_EPOCH":"6305","SEMIMAJOR_AXIS":"6925.380","COUNTRY_CODE":"US","PERIAPSIS":"546.498","FILE":"3121356","INCLINATION":"53.0543","OBJECT_ID":"2020-055S","BSTAR":"0.00006979900000","ECCENTRICITY":"0.00010790","EPHEMERIS_TYPE":"0","EPOCH":"2021-09-20T16:27:53.458560","LAUNCH_DATE":"2020-08-07","MEAN_MOTION_DDOT":"0.0000000000000","MEAN_MOTION_DOT":"0.00000758","REF_FRAME":"TEME","TIME_SYSTEM":"UTC","CLASSIFICATION_TYPE":"U","DECAY_DATE":null,"RA_OF_ASC_NODE":"248.4851","OBJECT_NAME":"STARLINK-1582","GP_ID":"185122654"},{"PERIAPSIS":"546.350","SEMIMAJOR_AXIS":"6925.362","COUNTRY_CODE":"US","REV_AT_EPOCH":"6306","RCS_SIZE":"LARGE","TLE_LINE2":"2 46044  53.0538 248.4138 0001266  69.8594 290.2531 15.06395644 63060","SITE":"AFETR","ELEMENT_SET_NO":"999","PERIOD":"95.592","ARG_OF_PERICENTER":"69.8594","TLE_LINE1":"1 46044U 20055T   21263.70077723  .00001046  00000-0  89139-4 0  9992","MEAN_ELEMENT_THEORY":"SGP4","APOAPSIS":"548.104","NORAD_CAT_ID":"46044","MEAN_ANOMALY":"290.2531","OBJECT_TYPE":"PAYLOAD","CENTER_NAME":"EARTH","MEAN_MOTION":"15.06395644","GP_ID":"185121402","OBJECT_NAME":"STARLINK-1584","CLASSIFICATION_TYPE":"U","TIME_SYSTEM":"UTC","RA_OF_ASC_NODE":"248.4138","DECAY_DATE":null,"REF_FRAME":"TEME","MEAN_MOTION_DOT":"0.00001046","MEAN_MOTION_DDOT":"0.0000000000000","EPOCH":"2021-09-20T16:49:07.152672","EPHEMERIS_TYPE":"0","LAUNCH_DATE":"2020-08-07","BSTAR":"0.00008913900000","ECCENTRICITY":"0.00012660","OBJECT_ID":"2020-055T","INCLINATION":"53.0538","FILE":"3121356"},{"MEAN_ANOMALY":"300.2100","OBJECT_TYPE":"PAYLOAD","NORAD_CAT_ID":"46045","CENTER_NAME":"EARTH","MEAN_MOTION":"15.06396286","ELEMENT_SET_NO":"999","SITE":"AFETR","TLE_LINE1":"1 46045U 20055U   21263.38008912 -.00000733  00000-0 -30354-4 0  9990","MEAN_ELEMENT_THEORY":"SGP4","APOAPSIS":"547.838","ARG_OF_PERICENTER":"59.8976","PERIOD":"95.592","REV_AT_EPOCH":"6299","RCS_SIZE":"LARGE","TLE_LINE2":"2 46045  53.0530 249.8619 0000885  59.8976 300.2100 15.06396286 62999","PERIAPSIS":"546.612","COUNTRY_CODE":"US","SEMIMAJOR_AXIS":"6925.360","ECCENTRICITY":"0.00008850","BSTAR":"-0.00003035400000","INCLINATION":"53.0530","OBJECT_ID":"2020-055U","FILE":"3121163","MEAN_MOTION_DOT":"-0.00000733","MEAN_MOTION_DDOT":"0.0000000000000","LAUNCH_DATE":"2020-08-07","EPOCH":"2021-09-20T09:07:19.699968","EPHEMERIS_TYPE":"0","RA_OF_ASC_NODE":"249.8619","DECAY_DATE":null,"CLASSIFICATION_TYPE":"U","TIME_SYSTEM":"UTC","REF_FRAME":"TEME","GP_ID":"185095469","OBJECT_NAME":"STARLINK-1591"}];
